[
  {
    "alpha2": "AD",
    "nameRu": "Андорра",
    "nameEn": "Andorra",
    "capitalRu": "Андорра-ла-Велья",
    "capitalEn": "Andorra la Vella",
    "region": "Europe"
  },
  {
    "alpha2": "AL",
    "nameRu": "Албания",
    "nameEn": "Albania",
    "capitalRu": "Тирана",
    "capitalEn": "Tirana",
    "region": "Europe"
  },
  {
    "alpha2": "AT",
    "nameRu": "Австрия",
    "nameEn": "Austria",
    "capitalRu": "Вена",
    "capitalEn": "Vienna",
    "region": "Europe"
  },
  {
    "alpha2": "BA",
    "nameRu": "Босния и Герцеговина",
    "nameEn": "Bosnia and Herzegovina",
    "capitalRu": "Сараево",
    "capitalEn": "Sarajevo",
    "region": "Europe"
  },
  {
    "alpha2": "BE",
    "nameRu": "Бельгия",
    "nameEn": "Belgium",
    "capitalRu": "Брюссель",
    "capitalEn": "Brussels",
    "region": "Europe"
  },
  {
    "alpha2": "BG",
    "nameRu": "Болгария",
    "nameEn": "Bulgaria",
    "capitalRu": "София",
    "capitalEn": "Sofia",
    "region": "Europe"
  },
  {
    "alpha2": "BY",
    "nameRu": "Беларусь",
    "nameEn": "Belarus",
    "capitalRu": "Минск",
    "capitalEn": "Minsk",
    "region": "Europe"
  },
  {
    "alpha2": "CH",
    "nameRu": "Швейцария",
    "nameEn": "Switzerland",
    "capitalRu": "Берн",
    "capitalEn": "Berne",
    "region": "Europe"
  },
  {
    "alpha2": "CZ",
    "nameRu": "Чешская Республика",
    "nameEn": "Czech Republic",
    "capitalRu": "Прага",
    "capitalEn": "Prague",
    "region": "Europe"
  },
  {
    "alpha2": "DE",
    "nameRu": "Германия",
    "nameEn": "Germany",
    "capitalRu": "Берлин",
    "capitalEn": "Berlin",
    "region": "Europe"
  },
  {
    "alpha2": "DK",
    "nameRu": "Дания",
    "nameEn": "Denmark",
    "capitalRu": "Копенгаген",
    "capitalEn": "Copenhagen",
    "region": "Europe"
  },
  {
    "alpha2": "EE",
    "nameRu": "Эстония",
    "nameEn": "Estonia",
    "capitalRu": "Таллин",
    "capitalEn": "Tallinn",
    "region": "Europe"
  },
  {
    "alpha2": "ES",
    "nameRu": "Испания",
    "nameEn": "Spain",
    "capitalRu": "Мадрид",
    "capitalEn": "Madrid",
    "region": "Europe"
  },
  {
    "alpha2": "FI",
    "nameRu": "Финляндия",
    "nameEn": "Finland",
    "capitalRu": "Хельсинки",
    "capitalEn": "Helsinki",
    "region": "Europe"
  },
  {
    "alpha2": "FO",
    "nameRu": "Фарерские острова",
    "nameEn": "Faroe Islands",
    "capitalRu": "Торсхавн",
    "capitalEn": "Torshavn",
    "region": "Europe"
  },
  {
    "alpha2": "FR",
    "nameRu": "Франция",
    "nameEn": "France",
    "capitalRu": "Париж",
    "capitalEn": "Paris",
    "region": "Europe"
  },
  {
    "alpha2": "GB-ENG",
    "nameRu": "Англия",
    "nameEn": "England",
    "capitalRu": "Лондон",
    "capitalEn": "London",
    "region": "Europe"
  },
  {
    "alpha2": "GB-SCT",
    "nameRu": "Шотландия",
    "nameEn": "Scotland",
    "capitalRu": "Эдинбург",
    "capitalEn": "Edinburgh",
    "region": "Europe"
  },
  {
    "alpha2": "GB-WLS",
    "nameRu": "Уэльс",
    "nameEn": "Wales",
    "capitalRu": "Кардифф",
    "capitalEn": "Cardiff",
    "region": "Europe"
  },
  {
    "alpha2": "GB",
    "nameRu": "Соединенное Королевство",
    "nameEn": "United Kingdom",
    "capitalRu": "Лондон",
    "capitalEn": "London",
    "region": "Europe"
  },
  {
    "alpha2": "GR",
    "nameRu": "Греция",
    "nameEn": "Greece",
    "capitalRu": "Афины",
    "capitalEn": "Athens",
    "region": "Europe"
  },
  {
    "alpha2": "HR",
    "nameRu": "Хорватия",
    "nameEn": "Croatia",
    "capitalRu": "Загреб",
    "capitalEn": "Zagreb",
    "region": "Europe"
  },
  {
    "alpha2": "HU",
    "nameRu": "Венгрия",
    "nameEn": "Hungary",
    "capitalRu": "Будапешт",
    "capitalEn": "Budapest",
    "region": "Europe"
  },
  {
    "alpha2": "IE",
    "nameRu": "Ирландия",
    "nameEn": "Ireland",
    "capitalRu": "Дублин",
    "capitalEn": "Dublin",
    "region": "Europe"
  },
  {
    "alpha2": "IS",
    "nameRu": "Исландия",
    "nameEn": "Iceland",
    "capitalRu": "Рейкьявик",
    "capitalEn": "Reykjavik",
    "region": "Europe"
  },
  {"alpha2": "IT", "nameRu": "Италия", "nameEn": "Italy", "capitalRu": "Рим", "capitalEn": "Rome", "region": "Europe"},
  {
    "alpha2": "LI",
    "nameRu": "Лихтенштейн",
    "nameEn": "Liechtenstein",
    "capitalRu": "Вадуц",
    "capitalEn": "Vaduz",
    "region": "Europe"
  },
  {
    "alpha2": "LT",
    "nameRu": "Литва",
    "nameEn": "Lithuania",
    "capitalRu": "Вильнюс",
    "capitalEn": "Vilnius",
    "region": "Europe"
  },
  {
    "alpha2": "LU",
    "nameRu": "Люксембург",
    "nameEn": "Luxembourg",
    "capitalRu": "Люксембург",
    "capitalEn": "Luxembourg",
    "region": "Europe"
  },
  {
    "alpha2": "LV",
    "nameRu": "Латвия",
    "nameEn": "Latvia",
    "capitalRu": "Рига",
    "capitalEn": "Riga",
    "region": "Europe"
  },
  {
    "alpha2": "MC",
    "nameRu": "Монако",
    "nameEn": "Monaco",
    "capitalRu": "Монако",
    "capitalEn": "Monaco",
    "region": "Europe"
  },
  {
    "alpha2": "MD",
    "nameRu": "Молдова, Республика",
    "nameEn": "Moldova, Republic of",
    "capitalRu": "Кишинев",
    "capitalEn": "Chisinau",
    "region": "Europe"
  },
  {
    "alpha2": "ME",
    "nameRu": "Черногория",
    "nameEn": "Montenegro",
    "capitalRu": "Подгорица",
    "capitalEn": "Podgorica",
    "region": "Europe"
  },
  {
    "alpha2": "MK",
    "nameRu": "Северная Македония",
    "nameEn": "North Macedonia",
    "capitalRu": "Скопье",
    "capitalEn": "Skopje",
    "region": "Europe"
  },
  {
    "alpha2": "MT",
    "nameRu": "Мальта",
    "nameEn": "Malta",
    "capitalRu": "Валлетта",
    "capitalEn": "Valletta",
    "region": "Europe"
  },
  {
    "alpha2": "NL",
    "nameRu": "Нидерланды",
    "nameEn": "Netherlands",
    "capitalRu": "Амстердам",
    "capitalEn": "Amsterdam",
    "region": "Europe"
  },
  {
    "alpha2": "NO",
    "nameRu": "Норвегия",
    "nameEn": "Norway",
    "capitalRu": "Осло",
    "capitalEn": "Oslo",
    "region": "Europe"
  },
  {
    "alpha2": "PL",
    "nameRu": "Польша",
    "nameEn": "Poland",
    "capitalRu": "Варшава",
    "capitalEn": "Warsaw",
    "region": "Europe"
  },
  {
    "alpha2": "PT",
    "nameRu": "Португалия",
    "nameEn": "Portugal",
    "capitalRu": "Лиссабон",
    "capitalEn": "Lisbon",
    "region": "Europe"
  },
  {
    "alpha2": "RO",
    "nameRu": "Румыния",
    "nameEn": "Romania",
    "capitalRu": "Бухарест",
    "capitalEn": "Bucharest",
    "region": "Europe"
  },
  {
    "alpha2": "RS",
    "nameRu": "Сербия",
    "nameEn": "Serbia",
    "capitalRu": "Белград",
    "capitalEn": "Belgrade",
    "region": "Europe"
  },
  {
    "alpha2": "RU",
    "nameRu": "Российская Федерация",
    "nameEn": "Russian Federation",
    "capitalRu": "Москва",
    "capitalEn": "Moscow",
    "region": "Europe"
  },
  {
    "alpha2": "SE",
    "nameRu": "Швеция",
    "nameEn": "Sweden",
    "capitalRu": "Стокгольм",
    "capitalEn": "Stockholm",
    "region": "Europe"
  },
  {
    "alpha2": "SI",
    "nameRu": "Словения",
    "nameEn": "Slovenia",
    "capitalRu": "Любляна",
    "capitalEn": "Ljubljana",
    "region": "Europe"
  },
  {
    "alpha2": "SK",
    "nameRu": "Словакия",
    "nameEn": "Slovakia",
    "capitalRu": "Братислава",
    "capitalEn": "Bratislava",
    "region": "Europe"
  },
  {
    "alpha2": "SM",
    "nameRu": "Сан-Марино",
    "nameEn": "San Marino",
    "capitalRu": "Сан-Марино",
    "capitalEn": "San Marino",
    "region": "Europe"
  },
  {
    "alpha2": "UA",
    "nameRu": "Украина",
    "nameEn": "Ukraine",
    "capitalRu": "Киев",
    "capitalEn": "Kiev",
    "region": "Europe"
  },
  {
    "alpha2": "VA",
    "nameRu": "Ватикан",
    "nameEn": "Holy See (Vatican City State)",
    "capitalRu": "Ватикан",
    "capitalEn": "Vatican City",
    "region": "Europe"
  },
  {
    "alpha2": "XK",
    "nameRu": "Косово",
    "nameEn": "Kosovo",
    "capitalRu": "Приштина",
    "capitalEn": "Pristina",
    "region": "Europe"
  },




  {
    "alpha2": "AE",
    "nameRu": "Объединенные Арабские Эмираты",
    "nameEn": "United Arab Emirates",
    "capitalRu": "Абу-Даби",
    "capitalEn": "Abu Dhabi",
    "region": "Asia"
  },
  {
    "alpha2": "AF",
    "nameRu": "Афганистан",
    "nameEn": "Afghanistan",
    "capitalRu": "Кабул",
    "capitalEn": "Kabul",
    "region": "Asia"
  },
  {
    "alpha2": "AM",
    "nameRu": "Армения",
    "nameEn": "Armenia",
    "capitalRu": "Ереван",
    "capitalEn": "Yerevan",
    "region": "Asia"
  },
  {
    "alpha2": "AZ",
    "nameRu": "Азербайджан",
    "nameEn": "Azerbaijan",
    "capitalRu": "Баку",
    "capitalEn": "Baku",
    "region": "Asia"
  },
  {
    "alpha2": "BD",
    "nameRu": "Бангладеш",
    "nameEn": "Bangladesh",
    "capitalRu": "Дакка",
    "capitalEn": "Dhaka",
    "region": "Asia"
  },
  {
    "alpha2": "BH",
    "nameRu": "Бахрейн",
    "nameEn": "Bahrain",
    "capitalRu": "Манама",
    "capitalEn": "Manama",
    "region": "Asia"
  },
  {
    "alpha2": "BN",
    "nameRu": "Бруней-Даруссалам",
    "nameEn": "Brunei Darussalam",
    "capitalRu": "Бандар-Сери-Багаван",
    "capitalEn": "Bandar Seri Begawan",
    "region": "Asia"
  },
  {
    "alpha2": "BT",
    "nameRu": "Бутан",
    "nameEn": "Bhutan",
    "capitalRu": "Тхимпху",
    "capitalEn": "Thimphu",
    "region": "Asia"
  },
  {
    "alpha2": "CN",
    "nameRu": "Китай",
    "nameEn": "China (People's Republic of China)",
    "capitalRu": "Пекин",
    "capitalEn": "Beijing",
    "region": "Asia"
  },
  {
    "alpha2": "CY",
    "nameRu": "Кипр",
    "nameEn": "Cyprus",
    "capitalRu": "Никосия",
    "capitalEn": "Nicosia",
    "region": "Asia"
  },
  {
    "alpha2": "GE",
    "nameRu": "Грузия",
    "nameEn": "Georgia",
    "capitalRu": "Тбилиси",
    "capitalEn": "Tbilisi",
    "region": "Asia"
  },
  {
    "alpha2": "HK",
    "nameRu": "Гонконг",
    "nameEn": "Hong Kong",
    "capitalRu": "Гонконг",
    "capitalEn": "Hong Kong",
    "region": "Asia"
  },
  {
    "alpha2": "ID",
    "nameRu": "Индонезия",
    "nameEn": "Indonesia",
    "capitalRu": "Джакарта",
    "capitalEn": "Jakarta",
    "region": "Asia"
  },
  {
    "alpha2": "IL",
    "nameRu": "Израиль",
    "nameEn": "Israel",
    "capitalRu": "Иерусалим",
    "capitalEn": "Jerusalem",
    "region": "Asia"
  },
  {
    "alpha2": "IN",
    "nameRu": "Индия",
    "nameEn": "India",
    "capitalRu": "Нью-Дели",
    "capitalEn": "New Delhi",
    "region": "Asia"
  },
  {"alpha2": "IQ", "nameRu": "Ирак", "nameEn": "Iraq", "capitalRu": "Багдад", "capitalEn": "Baghdad", "region": "Asia"},
  {
    "alpha2": "IR",
    "nameRu": "Иран, Исламская Республика",
    "nameEn": "Iran, Islamic Republic of",
    "capitalRu": "Тегеран",
    "capitalEn": "Tehran",
    "region": "Asia"
  },
  {
    "alpha2": "JO",
    "nameRu": "Иордания",
    "nameEn": "Jordan",
    "capitalRu": "Амман",
    "capitalEn": "Amman",
    "region": "Asia"
  },
  {"alpha2": "JP", "nameRu": "Япония", "nameEn": "Japan", "capitalRu": "Токио", "capitalEn": "Tokyo", "region": "Asia"},
  {
    "alpha2": "KG",
    "nameRu": "Кыргызстан",
    "nameEn": "Kyrgyzstan",
    "capitalRu": "Бишкек",
    "capitalEn": "Bishkek",
    "region": "Asia"
  },
  {
    "alpha2": "KH",
    "nameRu": "Камбоджа",
    "nameEn": "Cambodia",
    "capitalRu": "Пномпень",
    "capitalEn": "Phnom Penh",
    "region": "Asia"
  },
  {
    "alpha2": "KP",
    "nameRu": "Корея, Народно-Демократическая Республика",
    "nameEn": "Korea, Democratic People's Republic of",
    "capitalRu": "Пхеньян",
    "capitalEn": "Pyongyang",
    "region": "Asia"
  },
  {
    "alpha2": "KR",
    "nameRu": "Корея, Республика",
    "nameEn": "Korea, Republic of",
    "capitalRu": "Сеул",
    "capitalEn": "Seoul",
    "region": "Asia"
  },
  {
    "alpha2": "KW",
    "nameRu": "Кувейт",
    "nameEn": "Kuwait",
    "capitalRu": "Эль-Кувейт",
    "capitalEn": "Kuwait City",
    "region": "Asia"
  },
  {
    "alpha2": "KZ",
    "nameRu": "Казахстан",
    "nameEn": "Kazakhstan",
    "capitalRu": "Астана",
    "capitalEn": "Astana",
    "region": "Asia"
  },
  {
    "alpha2": "LA",
    "nameRu": "Лаос",
    "nameEn": "Laos (Lao People's Democratic Republic)",
    "capitalRu": "Вьентьян",
    "capitalEn": "Vientiane",
    "region": "Asia"
  },
  {
    "alpha2": "LB",
    "nameRu": "Ливан",
    "nameEn": "Lebanon",
    "capitalRu": "Бейрут",
    "capitalEn": "Beirut",
    "region": "Asia"
  },
  {
    "alpha2": "LK",
    "nameRu": "Шри-Ланка",
    "nameEn": "Sri Lanka",
    "capitalRu": "Коломбо",
    "capitalEn": "Colombo",
    "region": "Asia"
  },
  {
    "alpha2": "MM",
    "nameRu": "Мьянма",
    "nameEn": "Myanmar",
    "capitalRu": "Найпьидо",
    "capitalEn": "Nay Pyi Taw",
    "region": "Asia"
  },
  {
    "alpha2": "MN",
    "nameRu": "Монголия",
    "nameEn": "Mongolia",
    "capitalRu": "Улан-Батор",
    "capitalEn": "Ulan Bator",
    "region": "Asia"
  },
  {"alpha2": "MO", "nameRu": "Макао", "nameEn": "Macao", "capitalRu": "Macao", "capitalEn": "Macao", "region": "Asia"},
  {
    "alpha2": "MV",
    "nameRu": "Мальдивы",
    "nameEn": "Maldives",
    "capitalRu": "Мале",
    "capitalEn": "Male",
    "region": "Asia"
  },
  {
    "alpha2": "MY",
    "nameRu": "Малайзия",
    "nameEn": "Malaysia",
    "capitalRu": "Куала-Лумпур",
    "capitalEn": "Kuala Lumpur",
    "region": "Asia"
  },
  {
    "alpha2": "NP",
    "nameRu": "Непал",
    "nameEn": "Nepal",
    "capitalRu": "Катманду",
    "capitalEn": "Kathmandu",
    "region": "Asia"
  },
  {"alpha2": "OM", "nameRu": "Оман", "nameEn": "Oman", "capitalRu": "Маскат", "capitalEn": "Muscat", "region": "Asia"},
  {
    "alpha2": "PH",
    "nameRu": "Филиппины",
    "nameEn": "Philippines",
    "capitalRu": "Манила",
    "capitalEn": "Manila",
    "region": "Asia"
  },
  {
    "alpha2": "PK",
    "nameRu": "Пакистан",
    "nameEn": "Pakistan",
    "capitalRu": "Исламабад",
    "capitalEn": "Islamabad",
    "region": "Asia"
  },
  {
    "alpha2": "PS",
    "nameRu": "Палестина",
    "nameEn": "Palestine",
    "capitalRu": "Рамалла",
    "capitalEn": "East Jerusalem",
    "region": "Asia"
  },
  {"alpha2": "QA", "nameRu": "Катар", "nameEn": "Qatar", "capitalRu": "Доха", "capitalEn": "Doha", "region": "Asia"},
  {
    "alpha2": "SA",
    "nameRu": "Саудовская Аравия",
    "nameEn": "Saudi Arabia",
    "capitalRu": "Эр-Рияд",
    "capitalEn": "Riyadh",
    "region": "Asia"
  },
  {
    "alpha2": "SG",
    "nameRu": "Сингапур",
    "nameEn": "Singapore",
    "capitalRu": "Сингапур",
    "capitalEn": "Singapore",
    "region": "Asia"
  },
  {
    "alpha2": "SY",
    "nameRu": "Сирийская Арабская Республика",
    "nameEn": "Syrian Arab Republic",
    "capitalRu": "Дамаск",
    "capitalEn": "Damascus",
    "region": "Asia"
  },
  {
    "alpha2": "TH",
    "nameRu": "Таиланд",
    "nameEn": "Thailand",
    "capitalRu": "Бангкок",
    "capitalEn": "Bangkok",
    "region": "Asia"
  },
  {
    "alpha2": "TJ",
    "nameRu": "Таджикистан",
    "nameEn": "Tajikistan",
    "capitalRu": "Душанбе",
    "capitalEn": "Dushanbe",
    "region": "Asia"
  },
  {
    "alpha2": "TL",
    "nameRu": "Восточный Тимор",
    "nameEn": "Timor-Leste",
    "capitalRu": "Дили",
    "capitalEn": "Dili",
    "region": "Asia"
  },
  {
    "alpha2": "TM",
    "nameRu": "Туркменистан",
    "nameEn": "Turkmenistan",
    "capitalRu": "Ашхабад",
    "capitalEn": "Ashgabat",
    "region": "Asia"
  },
  {
    "alpha2": "TR",
    "nameRu": "Турция",
    "nameEn": "Turkey",
    "capitalRu": "Анкара",
    "capitalEn": "Ankara",
    "region": "Asia"
  },
  {
    "alpha2": "TW",
    "nameRu": "Тайвань",
    "nameEn": "Taiwan (Republic of China)",
    "capitalRu": "Тайбэй",
    "capitalEn": "Taipei",
    "region": "Asia"
  },
  {
    "alpha2": "UZ",
    "nameRu": "Узбекистан",
    "nameEn": "Uzbekistan",
    "capitalRu": "Ташкент",
    "capitalEn": "Tashkent",
    "region": "Asia"
  },
  {
    "alpha2": "VN",
    "nameRu": "Вьетнам",
    "nameEn": "Vietnam",
    "capitalRu": "Ханой",
    "capitalEn": "Hanoi",
    "region": "Asia"
  },
  {"alpha2": "YE", "nameRu": "Йемен", "nameEn": "Yemen", "capitalRu": "Сана", "capitalEn": "Sanaa", "region": "Asia"},




  {
    "alpha2": "AU",
    "nameRu": "Австралия",
    "nameEn": "Australia",
    "capitalRu": "Канберра",
    "capitalEn": "Canberra",
    "region": "Oceania"
  },
  {"alpha2": "FJ", "nameRu": "Фиджи", "nameEn": "Fiji", "capitalRu": "Сува", "capitalEn": "Suva", "region": "Oceania"},
  {
    "alpha2": "FM",
    "nameRu": "Микронезия, Федеративные Штаты",
    "nameEn": "Micronesia, Federated States of",
    "capitalRu": "Паликир",
    "capitalEn": "Palikir",
    "region": "Oceania"
  },
  {
    "alpha2": "KI",
    "nameRu": "Кирибати",
    "nameEn": "Kiribati",
    "capitalRu": "Баирики",
    "capitalEn": "Tarawa",
    "region": "Oceania"
  },
  {
    "alpha2": "MH",
    "nameRu": "Маршалловы острова",
    "nameEn": "Marshall Islands",
    "capitalRu": "Маджуро",
    "capitalEn": "Majuro",
    "region": "Oceania"
  },
  {
    "alpha2": "NR",
    "nameRu": "Науру",
    "nameEn": "Nauru",
    "capitalRu": "Ярен",
    "capitalEn": "Yaren",
    "region": "Oceania"
  },
  {"alpha2": "NU", "nameRu": "Ниуэ", "nameEn": "Niue", "capitalRu": "Алофи", "capitalEn": "Alofi", "region": "Oceania"},
  {
    "alpha2": "NZ",
    "nameRu": "Новая Зеландия",
    "nameEn": "New Zealand",
    "capitalRu": "Веллингтон",
    "capitalEn": "Wellington",
    "region": "Oceania"
  },
  {
    "alpha2": "PG",
    "nameRu": "Папуа-Новая Гвинея",
    "nameEn": "Papua New Guinea",
    "capitalRu": "Порт-Морсби",
    "capitalEn": "Port Moresby",
    "region": "Oceania"
  },
  {
    "alpha2": "PW",
    "nameRu": "Палау",
    "nameEn": "Palau",
    "capitalRu": "Мелекеок",
    "capitalEn": "Melekeok",
    "region": "Oceania"
  },
  {
    "alpha2": "SB",
    "nameRu": "Соломоновы острова",
    "nameEn": "Solomon Islands",
    "capitalRu": "Хониара",
    "capitalEn": "Honiara",
    "region": "Oceania"
  },
  {
    "alpha2": "TO",
    "nameRu": "Тонга",
    "nameEn": "Tonga",
    "capitalRu": "Нукуалофа",
    "capitalEn": "Nuku'alofa",
    "region": "Oceania"
  },
  {
    "alpha2": "TV",
    "nameRu": "Тувалу",
    "nameEn": "Tuvalu",
    "capitalRu": "Фунафути",
    "capitalEn": "Funafuti",
    "region": "Oceania"
  },
  {
    "alpha2": "VU",
    "nameRu": "Вануату",
    "nameEn": "Vanuatu",
    "capitalRu": "Порт-Вила",
    "capitalEn": "Port Vila",
    "region": "Oceania"
  },
  {"alpha2": "WS", "nameRu": "Самоа", "nameEn": "Samoa", "capitalRu": "Апиа", "capitalEn": "Apia", "region": "Oceania"},



  {
    "alpha2": "AG",
    "nameRu": "Антигуа и Барбуда",
    "nameEn": "Antigua and Barbuda",
    "capitalRu": "Сент-Джонс",
    "capitalEn": "St. John's",
    "region": "America"
  },
  {
    "alpha2": "AR",
    "nameRu": "Аргентина",
    "nameEn": "Argentina",
    "capitalRu": "Буэнос-Айрес",
    "capitalEn": "Buenos Aires",
    "region": "America"
  },
  {
    "alpha2": "BB",
    "nameRu": "Барбадос",
    "nameEn": "Barbados",
    "capitalRu": "Бриджтаун",
    "capitalEn": "Bridgetown",
    "region": "America"
  },
  {
    "alpha2": "BO",
    "nameRu": "Боливия",
    "nameEn": "Bolivia, Plurinational State of",
    "capitalRu": "Ла-Пас",
    "capitalEn": "Sucre",
    "region": "America"
  },
  {
    "alpha2": "BR",
    "nameRu": "Бразилия",
    "nameEn": "Brazil",
    "capitalRu": "Бразилиа",
    "capitalEn": "Brasilia",
    "region": "America"
  },
  {
    "alpha2": "BS",
    "nameRu": "Багамские острова",
    "nameEn": "Bahamas",
    "capitalRu": "Нассау",
    "capitalEn": "Nassau",
    "region": "America"
  },
  {
    "alpha2": "BZ",
    "nameRu": "Белиз",
    "nameEn": "Belize",
    "capitalRu": "Бельмопан",
    "capitalEn": "Belmopan",
    "region": "America"
  },
  {
    "alpha2": "CA",
    "nameRu": "Канада",
    "nameEn": "Canada",
    "capitalRu": "Оттава",
    "capitalEn": "Ottawa",
    "region": "America"
  },
  {
    "alpha2": "CL",
    "nameRu": "Чили",
    "nameEn": "Chile",
    "capitalRu": "Сантьяго",
    "capitalEn": "Santiago",
    "region": "America"
  },
  {
    "alpha2": "CO",
    "nameRu": "Колумбия",
    "nameEn": "Colombia",
    "capitalRu": "Санта-Фе-де-Богота",
    "capitalEn": "Bogota",
    "region": "America"
  },
  {
    "alpha2": "CR",
    "nameRu": "Коста-Рика",
    "nameEn": "Costa Rica",
    "capitalRu": "Сан-Хосе",
    "capitalEn": "San Jose",
    "region": "America"
  },
  {
    "alpha2": "CU",
    "nameRu": "Куба",
    "nameEn": "Cuba",
    "capitalRu": "Гавана",
    "capitalEn": "Havana",
    "region": "America"
  },
  {
    "alpha2": "DM",
    "nameRu": "Доминика",
    "nameEn": "Dominica",
    "capitalRu": "Розо",
    "capitalEn": "Roseau",
    "region": "America"
  },
  {
    "alpha2": "DO",
    "nameRu": "Доминиканская Республика",
    "nameEn": "Dominican Republic",
    "capitalRu": "Санто-Доминго",
    "capitalEn": "Santo Domingo",
    "region": "America"
  },
  {
    "alpha2": "EC",
    "nameRu": "Эквадор",
    "nameEn": "Ecuador",
    "capitalRu": "Кито",
    "capitalEn": "Quito",
    "region": "America"
  },
  {
    "alpha2": "GD",
    "nameRu": "Гренада",
    "nameEn": "Grenada",
    "capitalRu": "Сент-Джорджес",
    "capitalEn": "St. George's",
    "region": "America"
  },
  {
    "alpha2": "GL",
    "nameRu": "Гренландия",
    "nameEn": "Greenland",
    "capitalRu": "Нуук",
    "capitalEn": "Nuuk",
    "region": "America"
  },
  {
    "alpha2": "GT",
    "nameRu": "Гватемала",
    "nameEn": "Guatemala",
    "capitalRu": "Гватемала",
    "capitalEn": "Guatemala City",
    "region": "America"
  },
  {
    "alpha2": "GY",
    "nameRu": "Гайана",
    "nameEn": "Guyana",
    "capitalRu": "Джорджтаун",
    "capitalEn": "Georgetown",
    "region": "America"
  },
  {
    "alpha2": "HN",
    "nameRu": "Гондурас",
    "nameEn": "Honduras",
    "capitalRu": "Тегусигальпа",
    "capitalEn": "Tegucigalpa",
    "region": "America"
  },
  {
    "alpha2": "HT",
    "nameRu": "Гаити",
    "nameEn": "Haiti",
    "capitalRu": "Порт-о-Пренс",
    "capitalEn": "Port-au-Prince",
    "region": "America"
  },
  {
    "alpha2": "JM",
    "nameRu": "Ямайка",
    "nameEn": "Jamaica",
    "capitalRu": "Кингстон",
    "capitalEn": "Kingston",
    "region": "America"
  },
  {
    "alpha2": "KN",
    "nameRu": "Сент-Китс и Невис",
    "nameEn": "Saint Kitts and Nevis",
    "capitalRu": "Бастер",
    "capitalEn": "Basseterre",
    "region": "America"
  },
  {
    "alpha2": "LC",
    "nameRu": "Сент-Люсия",
    "nameEn": "Saint Lucia",
    "capitalRu": "Кастри",
    "capitalEn": "Castries",
    "region": "America"
  },
  {
    "alpha2": "MX",
    "nameRu": "Мексика",
    "nameEn": "Mexico",
    "capitalRu": "Мехико",
    "capitalEn": "Mexico City",
    "region": "America"
  },
  {
    "alpha2": "NI",
    "nameRu": "Никарагуа",
    "nameEn": "Nicaragua",
    "capitalRu": "Манагуа",
    "capitalEn": "Managua",
    "region": "America"
  },
  {
    "alpha2": "PA",
    "nameRu": "Панама",
    "nameEn": "Panama",
    "capitalRu": "Панама",
    "capitalEn": "Panama City",
    "region": "America"
  },
  {"alpha2": "PE", "nameRu": "Перу", "nameEn": "Peru", "capitalRu": "Лима", "capitalEn": "Lima", "region": "America"},
  {
    "alpha2": "PY",
    "nameRu": "Парагвай",
    "nameEn": "Paraguay",
    "capitalRu": "Асунсьон",
    "capitalEn": "Asuncion",
    "region": "America"
  },
  {
    "alpha2": "SR",
    "nameRu": "Суринам",
    "nameEn": "Suriname",
    "capitalRu": "Парамарибо",
    "capitalEn": "Paramaribo",
    "region": "America"
  },
  {
    "alpha2": "SV",
    "nameRu": "Сальвадор",
    "nameEn": "El Salvador",
    "capitalRu": "Сан-Сальвадор",
    "capitalEn": "San Salvador",
    "region": "America"
  },
  {
    "alpha2": "TT",
    "nameRu": "Тринидад и Тобаго",
    "nameEn": "Trinidad and Tobago",
    "capitalRu": "Порт-оф-Спейн",
    "capitalEn": "Port of Spain",
    "region": "America"
  },
  {
    "alpha2": "US",
    "nameRu": "Соединенные Штаты",
    "nameEn": "United States",
    "capitalRu": "Вашингтон",
    "capitalEn": "Washington",
    "region": "America"
  },
  {
    "alpha2": "UY",
    "nameRu": "Уругвай",
    "nameEn": "Uruguay",
    "capitalRu": "Монтевидео",
    "capitalEn": "Montevideo",
    "region": "America"
  },
  {
    "alpha2": "VC",
    "nameRu": "Сент-Винсент и Гренадины",
    "nameEn": "Saint Vincent and the Grenadines",
    "capitalRu": "Кингстаун",
    "capitalEn": "Kingstown",
    "region": "America"
  },
  {
    "alpha2": "VE",
    "nameRu": "Венесуэла, Боливарианская Республика",
    "nameEn": "Venezuela, Bolivarian Republic of",
    "capitalRu": "Каракас",
    "capitalEn": "Caracas",
    "region": "America"
  },




  {
    "alpha2": "AO",
    "nameRu": "Ангола",
    "nameEn": "Angola",
    "capitalRu": "Луанда",
    "capitalEn": "Luanda",
    "region": "Africa"
  },
  {
    "alpha2": "BF",
    "nameRu": "Буркина-Фасо",
    "nameEn": "Burkina Faso",
    "capitalRu": "Уагадугу",
    "capitalEn": "Ouagadougou",
    "region": "Africa"
  },
  {
    "alpha2": "BI",
    "nameRu": "Бурунди",
    "nameEn": "Burundi",
    "capitalRu": "Бужумбура",
    "capitalEn": "Bujumbura",
    "region": "Africa"
  },
  {
    "alpha2": "BJ",
    "nameRu": "Бенин",
    "nameEn": "Benin",
    "capitalRu": "Порто-Ново",
    "capitalEn": "Porto-Novo",
    "region": "Africa"
  },
  {
    "alpha2": "BW",
    "nameRu": "Ботсвана",
    "nameEn": "Botswana",
    "capitalRu": "Габороне",
    "capitalEn": "Gaborone",
    "region": "Africa"
  },
  {
    "alpha2": "CD",
    "nameRu": "Конго, Демократическая Республика",
    "nameEn": "Congo, the Democratic Republic of the",
    "capitalRu": "Киншаса",
    "capitalEn": "Kinshasa",
    "region": "Africa"
  },
  {
    "alpha2": "CF",
    "nameRu": "Центральноафриканская Республика",
    "nameEn": "Central African Republic",
    "capitalRu": "Банги",
    "capitalEn": "Bangui",
    "region": "Africa"
  },
  {
    "alpha2": "CG",
    "nameRu": "Республика Конго",
    "nameEn": "Republic of the Congo",
    "capitalRu": "Браззавиль",
    "capitalEn": "Brazzaville",
    "region": "Africa"
  },
  {
    "alpha2": "CI",
    "nameRu": "Кот-д’Ивуар",
    "nameEn": "Côte d'Ivoire",
    "capitalRu": "Ямусукро",
    "capitalEn": "Yamoussoukro",
    "region": "Africa"
  },
  {
    "alpha2": "CM",
    "nameRu": "Камерун",
    "nameEn": "Cameroon",
    "capitalRu": "Яунде",
    "capitalEn": "Yaounde",
    "region": "Africa"
  },
  {
    "alpha2": "CV",
    "nameRu": "Кабо-Верде",
    "nameEn": "Cape Verde",
    "capitalRu": "Прая",
    "capitalEn": "Praia",
    "region": "Africa"
  },
  {
    "alpha2": "DJ",
    "nameRu": "Джибути",
    "nameEn": "Djibouti",
    "capitalRu": "Джибути",
    "capitalEn": "Djibouti",
    "region": "Africa"
  },
  {
    "alpha2": "DZ",
    "nameRu": "Алжир",
    "nameEn": "Algeria",
    "capitalRu": "Алжир",
    "capitalEn": "Algiers",
    "region": "Africa"
  },
  {
    "alpha2": "EG",
    "nameRu": "Египет",
    "nameEn": "Egypt",
    "capitalRu": "Каир",
    "capitalEn": "Cairo",
    "region": "Africa"
  },
  {
    "alpha2": "ER",
    "nameRu": "Эритрея",
    "nameEn": "Eritrea",
    "capitalRu": "Асмарэ",
    "capitalEn": "Asmara",
    "region": "Africa"
  },
  {
    "alpha2": "ET",
    "nameRu": "Эфиопия",
    "nameEn": "Ethiopia",
    "capitalRu": "Аддис-Абеба",
    "capitalEn": "Addis Ababa",
    "region": "Africa"
  },
  {
    "alpha2": "GA",
    "nameRu": "Габон",
    "nameEn": "Gabon",
    "capitalRu": "Либревиль",
    "capitalEn": "Libreville",
    "region": "Africa"
  },
  {"alpha2": "GH", "nameRu": "Гана", "nameEn": "Ghana", "capitalRu": "Аккра", "capitalEn": "Accra", "region": "Africa"},
  {
    "alpha2": "GM",
    "nameRu": "Гамбия",
    "nameEn": "Gambia",
    "capitalRu": "Банжул",
    "capitalEn": "Banjul",
    "region": "Africa"
  },
  {
    "alpha2": "GN",
    "nameRu": "Гвинея",
    "nameEn": "Guinea",
    "capitalRu": "Конакри",
    "capitalEn": "Conakry",
    "region": "Africa"
  },
  {
    "alpha2": "GQ",
    "nameRu": "Экваториальная Гвинея",
    "nameEn": "Equatorial Guinea",
    "capitalRu": "Малабо",
    "capitalEn": "Malabo",
    "region": "Africa"
  },
  {
    "alpha2": "GW",
    "nameRu": "Гвинея-Бисау",
    "nameEn": "Guinea-Bissau",
    "capitalRu": "Бисау",
    "capitalEn": "Bissau",
    "region": "Africa"
  },
  {
    "alpha2": "KE",
    "nameRu": "Кения",
    "nameEn": "Kenya",
    "capitalRu": "Найроби",
    "capitalEn": "Nairobi",
    "region": "Africa"
  },
  {
    "alpha2": "KM",
    "nameRu": "Коморские острова",
    "nameEn": "Comoros",
    "capitalRu": "Морони",
    "capitalEn": "Moroni",
    "region": "Africa"
  },
  {
    "alpha2": "LR",
    "nameRu": "Либерия",
    "nameEn": "Liberia",
    "capitalRu": "Монровия",
    "capitalEn": "Monrovia",
    "region": "Africa"
  },
  {
    "alpha2": "LS",
    "nameRu": "Лесото",
    "nameEn": "Lesotho",
    "capitalRu": "Масеру",
    "capitalEn": "Maseru",
    "region": "Africa"
  },
  {
    "alpha2": "LY",
    "nameRu": "Ливия",
    "nameEn": "Libya",
    "capitalRu": "Триполи",
    "capitalEn": "Tripolis",
    "region": "Africa"
  },
  {
    "alpha2": "MA",
    "nameRu": "Марокко",
    "nameEn": "Morocco",
    "capitalRu": "Рабат",
    "capitalEn": "Rabat",
    "region": "Africa"
  },
  {
    "alpha2": "MG",
    "nameRu": "Мадагаскар",
    "nameEn": "Madagascar",
    "capitalRu": "Антананариву",
    "capitalEn": "Antananarivo",
    "region": "Africa"
  },
  {
    "alpha2": "ML",
    "nameRu": "Мали",
    "nameEn": "Mali",
    "capitalRu": "Бамако",
    "capitalEn": "Bamako",
    "region": "Africa"
  },
  {
    "alpha2": "MR",
    "nameRu": "Мавритания",
    "nameEn": "Mauritania",
    "capitalRu": "Нуакшот",
    "capitalEn": "Nouakchott",
    "region": "Africa"
  },
  {
    "alpha2": "MU",
    "nameRu": "Маврикий",
    "nameEn": "Mauritius",
    "capitalRu": "Порт-Луи",
    "capitalEn": "Port Louis",
    "region": "Africa"
  },
  {
    "alpha2": "MW",
    "nameRu": "Малави",
    "nameEn": "Malawi",
    "capitalRu": "Лилонгве",
    "capitalEn": "Lilongwe",
    "region": "Africa"
  },
  {
    "alpha2": "MZ",
    "nameRu": "Мозамбик",
    "nameEn": "Mozambique",
    "capitalRu": "Мапуту",
    "capitalEn": "Maputo",
    "region": "Africa"
  },
  {
    "alpha2": "NA",
    "nameRu": "Намибия",
    "nameEn": "Namibia",
    "capitalRu": "Виндхук",
    "capitalEn": "Windhoek",
    "region": "Africa"
  },
  {
    "alpha2": "NE",
    "nameRu": "Нигер",
    "nameEn": "Niger",
    "capitalRu": "Ниамей",
    "capitalEn": "Niamey",
    "region": "Africa"
  },
  {
    "alpha2": "NG",
    "nameRu": "Нигерия",
    "nameEn": "Nigeria",
    "capitalRu": "Абуджа",
    "capitalEn": "Abuja",
    "region": "Africa"
  },
  {
    "alpha2": "RW",
    "nameRu": "Руанда",
    "nameEn": "Rwanda",
    "capitalRu": "Кигали",
    "capitalEn": "Kigali",
    "region": "Africa"
  },
  {
    "alpha2": "SC",
    "nameRu": "Сейшельские острова",
    "nameEn": "Seychelles",
    "capitalRu": "Виктория",
    "capitalEn": "Victoria",
    "region": "Africa"
  },
  {
    "alpha2": "SD",
    "nameRu": "Судан",
    "nameEn": "Sudan",
    "capitalRu": "Хартум",
    "capitalEn": "Khartoum",
    "region": "Africa"
  },
  {
    "alpha2": "SL",
    "nameRu": "Сьерра-Леоне",
    "nameEn": "Sierra Leone",
    "capitalRu": "Фритаун",
    "capitalEn": "Freetown",
    "region": "Africa"
  },
  {
    "alpha2": "SN",
    "nameRu": "Сенегал",
    "nameEn": "Senegal",
    "capitalRu": "Дакар",
    "capitalEn": "Dakar",
    "region": "Africa"
  },
  {
    "alpha2": "SO",
    "nameRu": "Сомали",
    "nameEn": "Somalia",
    "capitalRu": "Могадишо",
    "capitalEn": "Mogadishu",
    "region": "Africa"
  },
  {
    "alpha2": "SS",
    "nameRu": "Южный Судан",
    "nameEn": "South Sudan",
    "capitalRu": "Джуба",
    "capitalEn": "Juba",
    "region": "Africa"
  },
  {
    "alpha2": "ST",
    "nameRu": "Сан-Томе и Принсипи",
    "nameEn": "Sao Tome and Principe",
    "capitalRu": "Сан-Томе",
    "capitalEn": "Sao Tome",
    "region": "Africa"
  },
  {
    "alpha2": "SZ",
    "nameRu": "Эсватини",
    "nameEn": "Swaziland",
    "capitalRu": "Мбабане",
    "capitalEn": "Mbabane",
    "region": "Africa"
  },
  {
    "alpha2": "TD",
    "nameRu": "Чад",
    "nameEn": "Chad",
    "capitalRu": "Нджамена",
    "capitalEn": "N'Djamena",
    "region": "Africa"
  },
  {"alpha2": "TG", "nameRu": "Того", "nameEn": "Togo", "capitalRu": "Ломе", "capitalEn": "Lome", "region": "Africa"},
  {
    "alpha2": "TN",
    "nameRu": "Тунис",
    "nameEn": "Tunisia",
    "capitalRu": "Тунис",
    "capitalEn": "Tunis",
    "region": "Africa"
  },
  {
    "alpha2": "TZ",
    "nameRu": "Танзания, Объединенная Республика",
    "nameEn": "Tanzania, United Republic of",
    "capitalRu": "Додома",
    "capitalEn": "Dodoma",
    "region": "Africa"
  },
  {
    "alpha2": "UG",
    "nameRu": "Уганда",
    "nameEn": "Uganda",
    "capitalRu": "Кампала",
    "capitalEn": "Kampala",
    "region": "Africa"
  },
  {
    "alpha2": "ZA",
    "nameRu": "Южная Африка",
    "nameEn": "South Africa",
    "capitalRu": "Претория",
    "capitalEn": "Pretoria",
    "region": "Africa"
  },
  {
    "alpha2": "ZM",
    "nameRu": "Замбия",
    "nameEn": "Zambia",
    "capitalRu": "Лусака",
    "capitalEn": "Lusaka",
    "region": "Africa"
  },
  {
    "alpha2": "ZW",
    "nameRu": "Зимбабве",
    "nameEn": "Zimbabwe",
    "capitalRu": "Хараре",
    "capitalEn": "Harare",
    "region": "Africa"
  },



  {
    "alpha2": "AI",
    "nameRu": "Ангилья",
    "nameEn": "Anguilla",
    "capitalRu": "Валли",
    "capitalEn": "The Valley",
    "region": "Dependent"
  },
  {
    "alpha2": "AQ",
    "nameRu": "Антарктида",
    "nameEn": "Antarctica",
    "capitalRu": "-",
    "capitalEn": "-",
    "region": "Dependent"
  },
  {
    "alpha2": "AS",
    "nameRu": "Американское Самоа",
    "nameEn": "American Samoa",
    "capitalRu": "Паго-Паго",
    "capitalEn": "Pago Pago",
    "region": "Dependent"
  },
  {
    "alpha2": "AW",
    "nameRu": "Аруба",
    "nameEn": "Aruba",
    "capitalRu": "Ораньестад",
    "capitalEn": "Oranjestad",
    "region": "Dependent"
  },
  {
    "alpha2": "AX",
    "nameRu": "Аландские острова",
    "nameEn": "Åland Islands",
    "capitalRu": "Мариехамн",
    "capitalEn": "Mariehamn",
    "region": "Dependent"
  },
  {
    "alpha2": "BM",
    "nameRu": "Бермудские острова",
    "nameEn": "Bermuda",
    "capitalRu": "Гамильтон",
    "capitalEn": "Hamilton",
    "region": "Dependent"
  },
  {
    "alpha2": "CC",
    "nameRu": "Кокосовые острова",
    "nameEn": "Cocos (Keeling) Islands",
    "capitalRu": "West Island",
    "capitalEn": "West Island",
    "region": "Dependent"
  },
  {
    "alpha2": "CK",
    "nameRu": "Острова Кука",
    "nameEn": "Cook Islands",
    "capitalRu": "Аваруа",
    "capitalEn": "Avarua",
    "region": "Dependent"
  },
  {
    "alpha2": "CW",
    "nameRu": "Кюрасao",
    "nameEn": "Curaçao",
    "capitalRu": "Аваруа",
    "capitalEn": "Willemstad",
    "region": "Dependent"
  },
  {
    "alpha2": "CX",
    "nameRu": "Остров Рождества",
    "nameEn": "Christmas Island",
    "capitalRu": "Флаинг Фиш Ков",
    "capitalEn": "Flying Fish Cove",
    "region": "Dependent"
  },
  {
    "alpha2": "EH",
    "nameRu": "Западная Сахара",
    "nameEn": "Western Sahara",
    "capitalRu": "Эль-Аюн",
    "capitalEn": "El-Aaiun",
    "region": "Dependent"
  },
  {
    "alpha2": "FK",
    "nameRu": "Фолклендские острова",
    "nameEn": "Falkland Islands (Malvinas)",
    "capitalRu": "Stanley",
    "capitalEn": "Stanley",
    "region": "Dependent"
  },
  {
    "alpha2": "GG",
    "nameRu": "Гернси",
    "nameEn": "Guernsey",
    "capitalRu": "Сент-Питер-Порт",
    "capitalEn": "St Peter Port",
    "region": "Dependent"
  },
  {
    "alpha2": "GI",
    "nameRu": "Гибралтар",
    "nameEn": "Gibraltar",
    "capitalRu": "Гибралтар",
    "capitalEn": "Gibraltar",
    "region": "Dependent"
  },
  {
    "alpha2": "GS",
    "nameRu": "Южная Георгия и Южные Сандвичевы острова",
    "nameEn": "South Georgia and the South Sandwich Islands",
    "capitalRu": "Кинг-Эдуард-Пойнт",
    "capitalEn": "King Edward Point",
    "region": "Dependent"
  },
  {
    "alpha2": "GU",
    "nameRu": "Гуам",
    "nameEn": "Guam",
    "capitalRu": "Хагатна",
    "capitalEn": "Hagatna",
    "region": "Dependent"
  },
  {
    "alpha2": "IM",
    "nameRu": "Остров Мэн",
    "nameEn": "Isle of Man",
    "capitalRu": "Дуглас",
    "capitalEn": "Douglas, Isle of Man",
    "region": "Dependent"
  },
  {
    "alpha2": "IO",
    "nameRu": "Британская территория в Индийском океане",
    "nameEn": "British Indian Ocean Territory",
    "capitalRu": "Диего-Гарсия",
    "capitalEn": "Diego Garcia",
    "region": "Dependent"
  },
  {
    "alpha2": "JE",
    "nameRu": "Джерси",
    "nameEn": "Jersey",
    "capitalRu": "Сент-Хельер",
    "capitalEn": "Saint Helier",
    "region": "Dependent"
  },
  {
    "alpha2": "KY",
    "nameRu": "Каймановы острова",
    "nameEn": "Cayman Islands",
    "capitalRu": "George Town",
    "capitalEn": "George Town",
    "region": "Dependent"
  },
  {
    "alpha2": "MP",
    "nameRu": "Северные Марианские острова",
    "nameEn": "Northern Mariana Islands",
    "capitalRu": "Сайпан",
    "capitalEn": "Saipan",
    "region": "Dependent"
  },
  {
    "alpha2": "MQ",
    "nameRu": "Мартиника",
    "nameEn": "Martinique",
    "capitalRu": "Фор-де-Франс",
    "capitalEn": "Fort-de-France",
    "region": "Dependent"
  },
  {
    "alpha2": "MS",
    "nameRu": "Монтсеррат",
    "nameEn": "Montserrat",
    "capitalRu": "Плимут",
    "capitalEn": "Plymouth",
    "region": "Dependent"
  },
  {
    "alpha2": "NC",
    "nameRu": "Новая Каледония",
    "nameEn": "New Caledonia",
    "capitalRu": "Нумеа",
    "capitalEn": "Noumea",
    "region": "Dependent"
  },
  {
    "alpha2": "NF",
    "nameRu": "Остров Норфолк",
    "nameEn": "Norfolk Island",
    "capitalRu": "Кингстон",
    "capitalEn": "Kingston",
    "region": "Dependent"
  },
  {
    "alpha2": "PF",
    "nameRu": "Французская Полинезия",
    "nameEn": "French Polynesia",
    "capitalRu": "Папеэте",
    "capitalEn": "Papeete",
    "region": "Dependent"
  },
  {
    "alpha2": "PN",
    "nameRu": "Питкэрн",
    "nameEn": "Pitcairn",
    "capitalRu": "Адамстаун",
    "capitalEn": "Adamstown",
    "region": "Dependent"
  },
  {
    "alpha2": "PR",
    "nameRu": "Пуэрто-Рико",
    "nameEn": "Puerto Rico",
    "capitalRu": "Сан-Хуан",
    "capitalEn": "San Juan",
    "region": "Dependent"
  },
  {
    "alpha2": "SH",
    "nameRu": "Остров Святой Елены, Вознесения и Тристан-да-Кунья",
    "nameEn": "Saint Helena, Ascension and Tristan da Cunha",
    "capitalRu": "Джеймстаун",
    "capitalEn": "Jamestown",
    "region": "Dependent"
  },
  {
    "alpha2": "SX",
    "nameRu": "Синт-Мартен",
    "nameEn": "Sint Maarten (Dutch part)",
    "capitalRu": "Филипсбург",
    "capitalEn": "Philipsburg",
    "region": "Dependent"
  },
  {
    "alpha2": "TC",
    "nameRu": "Острова Теркс и Кайкос",
    "nameEn": "Turks and Caicos Islands",
    "capitalRu": "Коберн-Таун",
    "capitalEn": "Cockburn Town",
    "region": "Dependent"
  },
  {
    "alpha2": "TF",
    "nameRu": "Французские южные территории",
    "nameEn": "French Southern Territories",
    "capitalRu": "Порт-о-Франсэ",
    "capitalEn": "Port of France",
    "region": "Dependent"
  },
  {"alpha2": "TK", "nameRu": "Токелау", "nameEn": "Tokelau", "capitalRu": "-", "capitalEn": "-", "region": "Dependent"},
  {
    "alpha2": "VG",
    "nameRu": "Виргинские острова, Британские",
    "nameEn": "Virgin Islands, British",
    "capitalRu": "Род-Таун",
    "capitalEn": "Road Town",
    "region": "Dependent"
  },
  {
    "alpha2": "VI",
    "nameRu": "Виргинские острова, США",
    "nameEn": "Virgin Islands, U.S.",
    "capitalRu": "Шарлотта-Амалия",
    "capitalEn": "Charlotte Amalie",
    "region": "Dependent"
  },
  {
    "alpha2": "WF",
    "nameRu": "Острова Уоллис и Футуна",
    "nameEn": "Wallis and Futuna Islands",
    "capitalRu": "Мата-Уту",
    "capitalEn": "Mata Utu",
    "region": "Dependent"
  }
]